{"type": "FeatureCollection", "features": [ {"type": "Feature", "properties": {"norad_id": 34375, "name": "IRIDIUM 33 DEB", "group": "iridium-33-debris", "lat": -22.097949792066995, "lon": 4.129657814506965, "alt_km": 818.2041479629461, "timestamp": "2025-12-12T18:57:44.514473+00:00", "meta": {"OBJECT_NAME": "IRIDIUM 33 DEB", "OBJECT_ID": "1997-051FT", "EPOCH": "2025-12-12T00:08:57.011424", "MEAN_MOTION": 14.17990153, "ECCENTRICITY": 0.0103263, "INCLINATION": 86.4328, "RA_OF_ASC_NODE": 182.9943, "ARG_OF_PERICENTER": 129.0153, "MEAN_ANOMALY": 32.8209, "EPHEMERIS_TYPE": 0, "CLASSIFICATION_TYPE": "U", "NORAD_CAT_ID": 34375, "ELEMENT_SET_NO": 999, "REV_AT_EPOCH": 86701, "BSTAR": 0.0006067, "MEAN_MOTION_DOT": 1.328e-05, "MEAN_MOTION_DDOT": 0}, "tle": {"line1": "1 34375U 97051FT  25346.00621541  .00001328  00000+0  60670-3 0  9998", "line2": "2 34375  86.4328 182.9943 0103263 129.0153  32.8209 14.17990153867013"}}, "geometry": {"type": "Point", "coordinates": [4.129657814506965, -22.097949792066995]}}, {"type": "Feature", "properties": {"norad_id": 34376, "name": "IRIDIUM 33 DEB", "group": "iridium-33-debris", "lat": -41.548364895665316, "lon": -170.1941889664127, "alt_km": 680.5919752984455, "timestamp": "2025-12-12T18:57:44.514483+00:00", "meta": {"OBJECT_NAME": "IRIDIUM 33 DEB", "OBJECT_ID": "1997-051FU", "EPOCH": "2025-12-12T01:32:00.921120", "MEAN_MOTION": 14.62553654, "ECCENTRICITY": 0.00271181, "INCLINATION": 86.2991, "RA_OF_ASC_NODE": 6.8437, "ARG_OF_PERICENTER": 168.8775, "MEAN_ANOMALY": 191.3042, "EPHEMERIS_TYPE": 0, "CLASSIFICATION_TYPE": "U", "NORAD_CAT_ID": 34376, "ELEMENT_SET_NO": 999, "REV_AT_EPOCH": 87997, "BSTAR": 0.0021834372, "MEAN_MOTION_DOT": 0.00011166, "MEAN_MOTION_DDOT": 0}, "tle": {"line1": "1 34376U 97051FU  25346.06389955  .00011166  00000+0  21834-2 0  9994", "line2": "2 34376  86.2991   6.8437 0027118 168.8775 191.3042 14.62553654879970"}}, "geometry": {"type": "Point", "coordinates": [-170.1941889664127, -41.548364895665316]}}, {"type": "Feature", "properties": {"norad_id": 34486, "name": "IRIDIUM 33 DEB", "group": "iridium-33-debris", "lat": 82.83496329144388, "lon": 42.1102626658615, "alt_km": 564.2217269203084, "timestamp": "2025-12-12T18:57:44.514493+00:00", "meta": {"OBJECT_NAME": "IRIDIUM 33 DEB", "OBJECT_ID": "1997-051GB", "EPOCH": "2025-12-12T02:47:17.170944", "MEAN_MOTION": 14.95759762, "ECCENTRICITY": 0.00136003, "INCLINATION": 86.3941, "RA_OF_ASC_NODE": 12.3125, "ARG_OF_PERICENTER": 115.3931, "MEAN_ANOMALY": 301.9535, "EPHEMERIS_TYPE": 0, "CLASSIFICATION_TYPE": "U", "NORAD_CAT_ID": 34486, "ELEMENT_SET_NO": 999, "REV_AT_EPOCH": 88977, "BSTAR": 0.0027908817, "MEAN_MOTION_DOT": 0.00031283, "MEAN_MOTION_DDOT": 0}, "tle": {"line1": "1 34486U 97051GB  25346.11617096  .00031283  00000+0  27909-2 0  9993", "line2": "2 34486  86.3941  12.3125 0013600 115.3931 301.9535 14.95759762889775"}}, "geometry": {"type": "Point", "coordinates": [42.1102626658615, 82.83496329144388]}}, {"type": "Feature", "properties": {"norad_id": 34487, "name": "IRIDIUM 33 DEB", "group": "iridium-33-debris", "lat": 86.30903396532207, "lon": 94.78420414762796, "alt_km": 722.1501706563295, "timestamp": "2025-12-12T18:57:44.514503+00:00", "meta": {"OBJECT_NAME": "IRIDIUM 33 DEB", "OBJECT_ID": "1997-051GC", "EPOCH": "2025-12-12T02:09:31.801824", "MEAN_MOTION": 14.43215052, "ECCENTRICITY": 0.00327325, "INCLINATION": 86.3435, "RA_OF_ASC_NODE": 12.6569, "ARG_OF_PERICENTER": 130.4184, "MEAN_ANOMALY": 283.9789, "EPHEMERIS_TYPE": 0, "CLASSIFICATION_TYPE": "U", "NORAD_CAT_ID": 34487, "ELEMENT_SET_NO": 999, "REV_AT_EPOCH": 88239, "BSTAR": 0.00028053869, "MEAN_MOTION_DOT": 9.69e-06, "MEAN_MOTION_DDOT": 0}, "tle": {"line1": "1 34487U 97051GC  25346.08995141  .00000969  00000+0  28054-3 0  9990", "line2": "2 34487  86.3435  12.6569 0032732 130.4184 283.9789 14.43215052882397"}}, "geometry": {"type": "Point", "coordinates": [94.78420414762796, 86.30903396532207]}}, {"type": "Feature", "properties": {"norad_id": 34488, "name": "IRIDIUM 33 DEB", "group": "iridium-33-debris", "lat": 73.30678946515097, "lon": -41.83319420754165, "alt_km": 461.65228440417286, "timestamp": "2025-12-12T18:57:44.514513+00:00", "meta": {"OBJECT_NAME": "IRIDIUM 33 DEB", "OBJECT_ID": "1997-051GD", "EPOCH": "2025-12-11T08:05:29.176800", "MEAN_MOTION": 15.28894611, "ECCENTRICITY": 0.00136408, "INCLINATION": 86.3246, "RA_OF_ASC_NODE": 306.5086, "ARG_OF_PERICENTER": 54.3044, "MEAN_ANOMALY": 305.9471, "EPHEMERIS_TYPE": 0, "CLASSIFICATION_TYPE": "U", "NORAD_CAT_ID": 34488, "ELEMENT_SET_NO": 999, "REV_AT_EPOCH": 89218, "BSTAR": 0.0084778967, "MEAN_MOTION_DOT": 0.00245926, "MEAN_MOTION_DDOT": 0}, "tle": {"line1": "1 34488U 97051GD  25345.33714325  .00245926  00000+0  84779-2 0  9990", "line2": "2 34488  86.3246 306.5086 0013640  54.3044 305.9471 15.28894611892182"}}, "geometry": {"type": "Point", "coordinates": [-41.83319420754165, 73.30678946515097]}}, {"type": "Feature", "properties": {"norad_id": 34492, "name": "IRIDIUM 33 DEB", "group": "iridium-33-debris", "lat": 5.437974599000934, "lon": 154.27276719336098, "alt_km": 746.0265358798715, "timestamp": "2025-12-12T18:57:44.514524+00:00", "meta": {"OBJECT_NAME": "IRIDIUM 33 DEB", "OBJECT_ID": "1997-051GH", "EPOCH": "2025-12-11T23:52:20.307072", "MEAN_MOTION": 14.25702027, "ECCENTRICITY": 0.0188912, "INCLINATION": 86.4727, "RA_OF_ASC_NODE": 334.9304, "ARG_OF_PERICENTER": 240.6264, "MEAN_ANOMALY": 175.7475, "EPHEMERIS_TYPE": 0, "CLASSIFICATION_TYPE": "U", "NORAD_CAT_ID": 34492, "ELEMENT_SET_NO": 999, "REV_AT_EPOCH": 85048, "BSTAR": 0.0061973, "MEAN_MOTION_DOT": 0.00017773, "MEAN_MOTION_DDOT": 0}, "tle": {"line1": "1 34492U 97051GH  25345.99467948  .00017773  00000+0  61973-2 0  9991", "line2": "2 34492  86.4727 334.9304 0188912 240.6264 175.7475 14.25702027850488"}}, "geometry": {"type": "Point", "coordinates": [154.27276719336098, 5.437974599000934]}}, {"type": "Feature", "properties": {"norad_id": 34497, "name": "IRIDIUM 33 DEB", "group": "iridium-33-debris", "lat": 55.654065127041065, "lon": 57.846568526699784, "alt_km": 781.3517588883487, "timestamp": "2025-12-12T18:57:44.514534+00:00", "meta": {"OBJECT_NAME": "IRIDIUM 33 DEB", "OBJECT_ID": "1997-051GN", "EPOCH": "2025-12-12T03:42:01.901088", "MEAN_MOTION": 14.27451136, "ECCENTRICITY": 0.0078862, "INCLINATION": 86.278, "RA_OF_ASC_NODE": 52.6518, "ARG_OF_PERICENTER": 341.481, "MEAN_ANOMALY": 47.7522, "EPHEMERIS_TYPE": 0, "CLASSIFICATION_TYPE": "U", "NORAD_CAT_ID": 34497, "ELEMENT_SET_NO": 999, "REV_AT_EPOCH": 86875, "BSTAR": 0.00094545609, "MEAN_MOTION_DOT": 2.415e-05, "MEAN_MOTION_DDOT": 0}, "tle": {"line1": "1 34497U 97051GN  25346.15418867  .00002415  00000+0  94546-3 0  9991", "line2": "2 34497  86.2780  52.6518 0078862 341.4810  47.7522 14.27451136868754"}}, "geometry": {"type": "Point", "coordinates": [57.846568526699784, 55.654065127041065]}}, {"type": "Feature", "properties": {"norad_id": 34508, "name": "IRIDIUM 33 DEB", "group": "iridium-33-debris", "lat": -35.57869113187248, "lon": -74.77552041845999, "alt_km": 735.2719613288182, "timestamp": "2025-12-12T18:57:44.514574+00:00", "meta": {"OBJECT_NAME": "IRIDIUM 33 DEB", "OBJECT_ID": "1997-051GZ", "EPOCH": "2025-12-12T06:16:44.853600", "MEAN_MOTION": 14.38423427, "ECCENTRICITY": 0.00660656, "INCLINATION": 86.3697, "RA_OF_ASC_NODE": 102.8455, "ARG_OF_PERICENTER": 174.5188, "MEAN_ANOMALY": 185.6749, "EPHEMERIS_TYPE": 0, "CLASSIFICATION_TYPE": "U", "NORAD_CAT_ID": 34508, "ELEMENT_SET_NO": 999, "REV_AT_EPOCH": 87302, "BSTAR": 0.0024154083, "MEAN_MOTION_DOT": 7.577e-05, "MEAN_MOTION_DDOT": 0}, "tle": {"line1": "1 34508U 97051GZ  25346.26163025  .00007577  00000+0  24154-2 0  9990", "line2": "2 34508  86.3697 102.8455 0066065 174.5188 185.6749 14.38423427873021"}}, "geometry": {"type": "Point", "coordinates": [-74.77552041845999, -35.57869113187248]}}, {"type": "Feature", "properties": {"norad_id": 34521, "name": "IRIDIUM 33 DEB", "group": "iridium-33-debris", "lat": 37.14470890838402, "lon": 33.2743857949188, "alt_km": 680.7972872350392, "timestamp": "2025-12-12T18:57:44.514590+00:00", "meta": {"OBJECT_NAME": "IRIDIUM 33 DEB", "OBJECT_ID": "1997-051HN", "EPOCH": "2025-12-12T04:01:21.502272", "MEAN_MOTION": 14.63360371, "ECCENTRICITY": 0.00014766, "INCLINATION": 86.3802, "RA_OF_ASC_NODE": 30.7997, "ARG_OF_PERICENTER": 216.2058, "MEAN_ANOMALY": 143.9054, "EPHEMERIS_TYPE": 0, "CLASSIFICATION_TYPE": "U", "NORAD_CAT_ID": 34521, "ELEMENT_SET_NO": 999, "REV_AT_EPOCH": 88464, "BSTAR": 0.0013718047, "MEAN_MOTION_DOT": 7.108e-05, "MEAN_MOTION_DDOT": 0}, "tle": {"line1": "1 34521U 97051HN  25346.16760998  .00007108  00000+0  13718-2 0  9990", "line2": "2 34521  86.3802  30.7997 0001476 216.2058 143.9054 14.63360371884641"}}, "geometry": {"type": "Point", "coordinates": [33.2743857949188, 37.14470890838402]}}, {"type": "Feature", "properties": {"norad_id": 34525, "name": "IRIDIUM 33 DEB", "group": "iridium-33-debris", "lat": -32.7525062527473, "lon": -130.83925130501967, "alt_km": 757.3573588018371, "timestamp": "2025-12-12T18:57:44.514600+00:00", "meta": {"OBJECT_NAME": "IRIDIUM 33 DEB", "OBJECT_ID": "1997-051HS", "EPOCH": "2025-12-12T04:55:03.631296", "MEAN_MOTION": 14.42904301, "ECCENTRICITY": 0.00066596, "INCLINATION": 86.3729, "RA_OF_ASC_NODE": 47.0719, "ARG_OF_PERICENTER": 96.5005, "MEAN_ANOMALY": 318.3145, "EPHEMERIS_TYPE": 0, "CLASSIFICATION_TYPE": "U", "NORAD_CAT_ID": 34525, "ELEMENT_SET_NO": 999, "REV_AT_EPOCH": 88080, "BSTAR": 0.00059243464, "MEAN_MOTION_DOT": 1.999e-05, "MEAN_MOTION_DDOT": 0}, "tle": {"line1": "1 34525U 97051HS  25346.20490314  .00001999  00000+0  59243-3 0  9997", "line2": "2 34525  86.3729  47.0719 0006659  96.5005 318.3145 14.42904301880802"}}, "geometry": {"type": "Point", "coordinates": [-130.83925130501967, -32.7525062527473]}}]}